Keyword,Location,Url,Title,Address,cityLocation,PostalCode,State,Phone
Travel Agent,Ghaziabad,http://www.topindiatour.com/,Top India Tours,"No. L - 6, Samrat Bhawan, Ranjit Nagar, Commercial Complex,", New Delhi ,110008,Delhi,9953357207
Travel Agent,Ghaziabad,http://www.indiamart.com/lawrence-travels/,Lawrence Travels & Tours (P) Ltd.,"151, Rajendra Bhawan Rajendra Place,", New Delhi ,110008,Delhi, 011-46868686 
Travel Agent,Ghaziabad,http://www.indiamart.com/sny-travelsolution/tour-operators.html#mountaineering-trips,"Sny Travel Solutions, India Private Limited","Unit No. 108, 1st Floor, Vikas Tower, Plot No. 31, Road No. 44, Community Centre, Pitam Pura,", Delhi ,110 035,Delhi, 011-45151999 
Travel Agent,Ghaziabad,http://www.indiamart.com/glory-trip/travel-info.html#importance-of-using-a-travel-agent,Glory Trip,"213, Pandav Nagar,", Delhi ,110091,Delhi,8048563861
Travel Agent,Ghaziabad,http://www.indiamart.com/enjoytrip-chandigarh/,Enjoy Trip,"SCO 142,143, 4th Floor, Sector 34A,", Chandigarh ,160034,Chandigarh,9180540048
Travel Agent,Ghaziabad,http://www.indiamart.com/pench-jungle-resorts/,Pench Jungle Resorts Private Limited,"No. 10, 3rd Floor, Satya Niketan,", New Delhi ,110021,Delhi,8048570301
Travel Agent,Ghaziabad,http://www.indiamart.com/yo-travel-time/specialities.html#tour,Yo Travel Time,"CMP 05, Amrapali Village, Gyan Khand 2, Near Kala Patthar, Indirapuram,", Ghaziabad ,201010,Uttar Pradesh,9650281792
Travel Agent,Ghaziabad,http://www.indiamart.com/auvjan-holidays/,Auvjan Holidays Private Limited,"UG- 10-11,Parmesh Corporate Tower- II Karkarduma, Anand Vihar,", Delhi ,110092,Delhi,9891421111
Travel Agent,Ghaziabad,http://www.indiamart.com/a2ztravelplanner/,A2Z Travel Planners,"E-17B, Sector 40, Near Sector No. 39 State Bank of India,", Noida ,201303,Uttar Pradesh,9810230517
Travel Agent,Ghaziabad,http://www.indiamart.com/ys-tours/,YS Tours,"No. 229/29, Railway Colony, Street No. 3, Mandawali,", Delhi ,110 092,Delhi,9871565011
Travel Agent,Ghaziabad,http://www.indiamart.com/jetstar-travels/,Jetstar Travels,"C-1/32, Chitrakoot Scheme, Vaishali Nagar Near Global Hospital,", Jaipur ,302021,Rajasthan,8046072959
Travel Agent,Ghaziabad,http://www.indiamart.com/ammaar-traveloworld/,Ammaar Traveloworld Private Limited,"26C/1, 4th Floor Khizrabad, New Friend Colony 5998, Nawab Road ,basti Harphool Singh Sadar Bazar Delhi 110006,", Delhi ,110006,Delhi,8046076742
Travel Agent,Ghaziabad,http://www.indiamart.com/ideal-stay-india/singapore.html#singapore-travel-information,Ideal Stay India,"No. 1350/19, Baba Chambers, 2nd Floor, Flat No. 201, Karol Bagh,,", Delhi ,110006,Delhi,8048570122
Travel Agent,Ghaziabad,http://www.indiamart.com/unique-travelz/,Unique Travels,"No. 246, Sector 20, Top Floor,", Panchkula ,134109,Haryana,8046082397
Travel Agent,Ghaziabad,http://www.indiamart.com/adarshnoidatravels/tour-packages.html#rajasthan-tours,Adarsh Noida Travels Pvt. Ltd.,"A-1,Raj Palace,IInd Floor, Near Vinayak Hospital,Sector-27,,", Noida ,201301,Uttar Pradesh,9811992203
Travel Agent,Ghaziabad,http://www.jetsavetours.com/,Jetsave India Tours Pvt. Ltd.,"30/28, IIIrd Floor, (Opp Mughal Mahal Restaurant), East Patel Nagar New Delhi,", New Delhi ,110008,Delhi,9953356862
Travel Agent,Ghaziabad,http://www.indiamart.com/wildlife-and-romance/tour-packages.html#himachal-tour,Wildlife & Romance Private Limited,"No. 108, R.B. House Nizamuddin West,", New Delhi ,110013,Delhi,8042973514
Travel Agent,Ghaziabad,http://www.indiamart.com/incentive-destinations/,Incentive Destinations Private Limited,"M 10, Greater Kailash 2,", Delhi ,110048,Delhi,7129218976
Travel Agent,Ghaziabad,http://www.indiamart.com/pearl-cabs/,Pearl Cabs,"440, , DDA Flats New Ranjeet Nagar ,Near Satyam Cinema,", New Delhi ,110008,Delhi,8800944499
Travel Agent,Ghaziabad,http://www.indiamart.com/arrangerssolutions/tours-and-travels.html#tour-and-travel-services,Arrangers Solutions & Services,"C - 28, 1st Floor, Chamber No. 2, Main Masoodpur Road, Vasant Kunj,", New Delhi ,110 070,Delhi,8860086873
